HYLAS 2                 
1 38741U 12043B   26158.54513921 -.00000243  00000+0  00000+0 0  9993
2 38741   2.4014  81.1854 0002779  18.2005 280.2501  1.00271681 50676
INTELSAT 21 (IS-21)     
1 38749U 12045A   26158.76186372 -.00000270  00000+0  00000+0 0  9993
2 38749   0.0447  87.2174 0002014 357.1505  28.0822  1.00272348 50431
ASTRA 2F                
1 38778U 12051A   26158.70763455  .00000165  00000+0  00000+0 0  9991
2 38778   0.0461 256.2719 0000990 275.7773   6.9937  1.00273139 41043
GSAT-10                 
1 38779U 12051B   26158.14817360 -.00000151  00000+0  00000+0 0  9991
2 38779   0.0171 262.4199 0008003 186.5141 302.9972  1.00271795 49990
INTELSAT 23 (IS-23)     
1 38867U 12057A   26158.76290373 -.00000270  00000+0  00000+0 0  9994
2 38867   0.0140 333.0333 0000552 118.3225  26.4523  1.00275593 49862
BEIDOU-2 G6             
1 38953U 12059A   26158.87316484 -.00000161  00000+0  00000+0 0  9995
2 38953   4.3971  73.6209 0010346 324.5469 256.4385  1.00274830 49818
LUCH-5B                 
1 38977U 12061A   26157.98591054 -.00000126  00000+0  00000+0 0  9994
2 38977  10.4589  49.9805 0001756 137.0640  46.9761  1.00274188 49500
YAMAL 300K              
1 38978U 12061B   26158.80959296  .00000086  00000+0  00000+0 0  9997
2 38978   0.0123 267.8117 0001168 308.4129 154.3971  1.00271332 49538
STAR ONE C3             
1 38991U 12062A   26158.54461921 -.00000234  00000+0  00000+0 0  9993
2 38991   0.0176 358.1853 0002561  95.1052 283.7237  1.00269856 49669
EUTELSAT 21B            
1 38992U 12062B   26158.77746377  .00000145  00000+0  00000+0 0  9990
2 38992   0.0656 352.0761 0003028  80.6208 124.9372  1.00270786 49733
ECHOSTAR 16             
1 39008U 12065A   26158.47648241 -.00000267  00000+0  00000+0 0  9996
2 39008   0.0173 331.8022 0001823 106.9395 287.1836  1.00270461 49547
ZHONGXING-12            
1 39017U 12067A   26158.87316484 -.00000192  00000+0  00000+0 0  9990
2 39017   0.0492  96.6134 0003339 337.5126 223.9925  1.00271155 49413
EUTELSAT 70B            
1 39020U 12069A   26158.78731953 -.00000028  00000+0  00000+0 0  9996
2 39020   0.0611 354.8886 0003975  74.7221 180.4952  1.00271622 49411
YAMAL 402               
1 39022U 12070A   26158.85550733  .00000101  00000+0  00000+0 0  9994
2 39022   1.2402  84.2781 0003870 348.8491 186.0064  1.00271761 49308
SKYNET 5D               
1 39034U 12075A   26158.78385284  .00000114  00000+0  00000+0 0  9995
2 39034   0.0661   0.7626 0003839  84.3278 146.0599  1.00272725 49069
MEXSAT 3                
1 39035U 12075B   26158.67930671 -.00000011  00000+0  00000+0 0  9997
2 39035   0.0245  77.3197 0001393 352.9073 315.6158  1.00269024  6955
TDRS 11                 
1 39070U 13004A   26158.75591793  .00000093  00000+0  00000+0 0  9995
2 39070   3.5075  31.1102 0005659  15.8175 307.0693  1.00266141 46594
AMAZONAS 3              
1 39078U 13006A   26158.76125705 -.00000267  00000+0  00000+0 0  9996
2 39078   0.0343 174.9328 0002191 294.8059 359.4825  1.00270228 44829
AZERSPACE 1             
1 39079U 13006B   26158.78246617  .00000148  00000+0  00000+0 0  9992
2 39079   0.0178   2.5468 0001414  95.9707 125.3428  1.00275469 48717
SBIRS GEO-2 (USA 241)   
1 39120U 13011A   26158.47830242 -.00000272  00000+0  00000+0 0  9993
2 39120   4.4696  52.5057 0002177  17.0704 308.6858  1.00272460 48435
EUTELSAT 117 WEST A     
1 39122U 13012A   26158.60760498  .00000002  00000+0  00000+0 0  9996
2 39122   0.0425  62.9936 0002852  17.4598 277.4922  1.00272042 48335
ANIK G1                 
1 39127U 13014A   26158.68078006 -.00000059  00000+0  00000+0 0  9991
2 39127   0.0447  87.7873 0001746 342.3597 323.7133  1.00271947 48151
ZHONGXING-11            
1 39157U 13020A   26158.91794025 -.00000276  00000+0  00000+0 0  9994
2 39157   0.0308  39.6313 0002538  31.3402 253.7157  1.00274028 47807
EUTELSAT 7B             
1 39163U 13022A   26158.77477711  .00000063  00000+0  00000+0 0  9990
2 39163   0.0683   9.6083 0005046  26.2175 146.2645  1.00271185 47852
WGS F5 (USA 243)        
1 39168U 13024A   26158.76299038 -.00000269  00000+0  00000+0 0  9999
2 39168   0.0191 309.6637 0000277  88.6861  79.9907  1.00270128 47088
SES-6                   
1 39172U 13026A   26158.76533038 -.00000246  00000+0  00000+0 0  9992
2 39172   0.0225 318.5847 0002702 135.3289  37.2768  1.00270488 47634
IRNSS-1A                
1 39199U 13034A   26142.85947303  .00000059  00000+0  00000+0 0  9998
2 39199  35.6649  64.2334 0016618 185.3754 355.4646  1.00280263 47111
MUOS-2                  
1 39206U 13036A   26158.60066110  .00000001  00000+0  00000+0 0  9994
2 39206   4.9771  45.5214 0050633 177.9917  60.6612  1.00271551 47092
ALPHASAT                
1 39215U 13038A   26158.56437630  .00000147  00000+0  00000+0 0  9991
2 39215   2.9979   1.4237 0001959  77.3938  45.1864  1.00270633 43924
INSAT-3D                
1 39216U 13038B   26158.79901956 -.00000324  00000+0  00000+0 0  9992
2 39216   1.9008  82.6631 0000843 320.0423 270.6425  1.00274279 46981
WGS F6 (USA 244)        
1 39222U 13041A   26158.74655943  .00000104  00000+0  00000+0 0  9995
2 39222   0.0180 353.3941 0000104  86.7566 309.5924  1.00271538 45963
ES'HAIL 1               
1 39233U 13044A   26158.70711455  .00000158  00000+0  00000+0 0  9996
2 39233   0.0483   1.1225 0002381  71.3585 103.6611  1.00270716 46531
