OBJECT_NAME,OBJECT_ID,EPOCH,MEAN_MOTION,ECCENTRICITY,INCLINATION,RA_OF_ASC_NODE,ARG_OF_PERICENTER,MEAN_ANOMALY,EPHEMERIS_TYPE,CLASSIFICATION_TYPE,NORAD_CAT_ID,ELEMENT_SET_NO,REV_AT_EPOCH,BSTAR,MEAN_MOTION_DOT,MEAN_MOTION_DDOT
HYLAS 2,2012-043B,2026-06-07T13:05:00.027744,1.00271681,.0002779,2.4014,81.1854,18.2005,280.2501,0,U,38741,999,5067,0,-.243E-5,0
INTELSAT 21 (IS-21),2012-045A,2026-06-07T18:17:05.025408,1.00272348,.0002014,0.0447,87.2174,357.1505,28.0822,0,U,38749,999,5043,0,-.27E-5,0
ASTRA 2F,2012-051A,2026-06-07T16:58:59.625120,1.00273139,.000099,0.0461,256.2719,275.7773,6.9937,0,U,38778,999,4104,0,.165E-5,0
GSAT-10,2012-051B,2026-06-07T03:33:22.199040,1.00271795,.0008003,0.0171,262.4199,186.5141,302.9972,0,U,38779,999,4999,0,-.151E-5,0
INTELSAT 23 (IS-23),2012-057A,2026-06-07T18:18:34.882272,1.00275593,.0000552,0.0140,333.0333,118.3225,26.4523,0,U,38867,999,4986,0,-.27E-5,0
BEIDOU-2 G6,2012-059A,2026-06-07T20:57:21.442176,1.00274830,.0010346,4.3971,73.6209,324.5469,256.4385,0,U,38953,999,4981,0,-.161E-5,0
LUCH-5B,2012-061A,2026-06-06T23:39:42.670656,1.00274188,.0001756,10.4589,49.9805,137.0640,46.9761,0,U,38977,999,4950,0,-.126E-5,0
YAMAL 300K,2012-061B,2026-06-07T19:25:48.831744,1.00271332,.0001168,0.0123,267.8117,308.4129,154.3971,0,U,38978,999,4953,0,.86E-6,0
STAR ONE C3,2012-062A,2026-06-07T13:04:15.099744,1.00269856,.0002561,0.0176,358.1853,95.1052,283.7237,0,U,38991,999,4966,0,-.234E-5,0
EUTELSAT 21B,2012-062B,2026-06-07T18:39:32.869728,1.00270786,.0003028,0.0656,352.0761,80.6208,124.9372,0,U,38992,999,4973,0,.145E-5,0
ECHOSTAR 16,2012-065A,2026-06-07T11:26:08.080224,1.00270461,.0001823,0.0173,331.8022,106.9395,287.1836,0,U,39008,999,4954,0,-.267E-5,0
ZHONGXING-12,2012-067A,2026-06-07T20:57:21.442176,1.00271155,.0003339,0.0492,96.6134,337.5126,223.9925,0,U,39017,999,4941,0,-.192E-5,0
EUTELSAT 70B,2012-069A,2026-06-07T18:53:44.407392,1.00271622,.0003975,0.0611,354.8886,74.7221,180.4952,0,U,39020,999,4941,0,-.28E-6,0
YAMAL 402,2012-070A,2026-06-07T20:31:55.833312,1.00271761,.000387,1.2402,84.2781,348.8491,186.0064,0,U,39022,999,4930,0,.101E-5,0
SKYNET 5D,2012-075A,2026-06-07T18:48:44.885376,1.00272725,.0003839,0.0661,0.7626,84.3278,146.0599,0,U,39034,999,4906,0,.114E-5,0
MEXSAT 3,2012-075B,2026-06-07T16:18:12.099744,1.00269024,.0001393,0.0245,77.3197,352.9073,315.6158,0,U,39035,999,695,0,-.11E-6,0
TDRS 11,2013-004A,2026-06-07T18:08:31.309152,1.00266141,.0005659,3.5075,31.1102,15.8175,307.0693,0,U,39070,999,4659,0,.93E-6,0
AMAZONAS 3,2013-006A,2026-06-07T18:16:12.609120,1.00270228,.0002191,0.0343,174.9328,294.8059,359.4825,0,U,39078,999,4482,0,-.267E-5,0
AZERSPACE 1,2013-006B,2026-06-07T18:46:45.077088,1.00275469,.0001414,0.0178,2.5468,95.9707,125.3428,0,U,39079,999,4871,0,.148E-5,0
SBIRS GEO-2 (USA 241),2013-011A,2026-06-07T11:28:45.329088,1.00272460,.0002177,4.4696,52.5057,17.0704,308.6858,0,U,39120,999,4843,0,-.272E-5,0
EUTELSAT 117 WEST A,2013-012A,2026-06-07T14:34:57.070272,1.00272042,.0002852,0.0425,62.9936,17.4598,277.4922,0,U,39122,999,4833,0,.2E-7,0
ANIK G1,2013-014A,2026-06-07T16:20:19.397184,1.00271947,.0001746,0.0447,87.7873,342.3597,323.7133,0,U,39127,999,4815,0,-.59E-6,0
ZHONGXING-11,2013-020A,2026-06-07T22:01:50.037600,1.00274028,.0002538,0.0308,39.6313,31.3402,253.7157,0,U,39157,999,4780,0,-.276E-5,0
EUTELSAT 7B,2013-022A,2026-06-07T18:35:40.742304,1.00271185,.0005046,0.0683,9.6083,26.2175,146.2645,0,U,39163,999,4785,0,.63E-6,0
WGS F5 (USA 243),2013-024A,2026-06-07T18:18:42.368832,1.00270128,.0000277,0.0191,309.6637,88.6861,79.9907,0,U,39168,999,4708,0,-.269E-5,0
SES-6,2013-026A,2026-06-07T18:22:04.544832,1.00270488,.0002702,0.0225,318.5847,135.3289,37.2768,0,U,39172,999,4763,0,-.246E-5,0
IRNSS-1A,2013-034A,2026-05-22T20:37:38.469792,1.00280263,.00166187,35.6649,64.2334,185.3754,355.4646,0,U,39199,999,4711,0,.59E-6,0
MUOS-2,2013-036A,2026-06-07T14:24:57.119040,1.00271551,.0050633,4.9771,45.5214,177.9917,60.6612,0,U,39206,999,4709,0,.1E-7,0
ALPHASAT,2013-038A,2026-06-07T13:32:42.112320,1.00270633,.0001959,2.9979,1.4237,77.3938,45.1864,0,U,39215,999,4392,0,.147E-5,0
INSAT-3D,2013-038B,2026-06-07T19:10:35.289984,1.00274279,.0000843,1.9008,82.6631,320.0423,270.6425,0,U,39216,999,4698,0,-.324E-5,0
WGS F6 (USA 244),2013-041A,2026-06-07T17:55:02.734752,1.00271538,.0000104,0.0180,353.3941,86.7566,309.5924,0,U,39222,999,4596,0,.104E-5,0
ES'HAIL 1,2013-044A,2026-06-07T16:58:14.697120,1.00270716,.0002381,0.0483,1.1225,71.3585,103.6611,0,U,39233,999,4653,0,.158E-5,0
